STARLINK-34493          
1 64472U 25133A   25202.91670139 -.00007095  00000+0 -16756-3 0  9994
2 64472  53.1603 117.1182 0001027  89.9072  61.4384 15.39618835  5739
STARLINK-34492          
1 64473U 25133B   25202.58334491  .00053829  00000+0  13477-2 0  9996
2 64473  53.1604 118.6402 0001005  95.8750  30.6601 15.39586764  5686
STARLINK-34474          
1 64474U 25133C   25202.91670139 -.00007556  00000+0 -17908-3 0  9998
2 64474  53.1603 117.0664 0001239  92.9283  84.1659 15.39623472  5716
STARLINK-34523          
1 64475U 25133D   25202.91670139 -.00007543  00000+0 -17877-3 0  9990
2 64475  53.1604 117.0176 0001304  64.0826 136.8952 15.39621173  5719
STARLINK-34496          
1 64476U 25133E   25202.91670139 -.00007800  00000+0 -18495-3 0  9994
2 64476  53.1605 117.0134 0001355  73.6644 129.2040 15.39660826  5739
STARLINK-34375          
1 64477U 25133F   25202.58334491  .00060149  00000+0  15045-2 0  9996
2 64477  53.1602 118.5362 0000908  78.4556  99.5328 15.39566834  5680
STARLINK-34490          
1 64478U 25133G   25202.91670139 -.00002330  00000+0 -48352-4 0  9995
2 64478  53.1602 116.9147 0001257  91.7660 160.6922 15.39582444  5737
STARLINK-34528          
1 64479U 25133H   25202.91670139 -.00006467  00000+0 -15182-3 0  9995
2 64479  53.1603 116.9626 0000951  90.8319 137.7648 15.39624772  5711
STARLINK-34518          
1 64480U 25133J   25202.58334491  .00063960  00000+0  15980-2 0  9992
2 64480  53.1601 118.4801 0001199  77.6693 127.9980 15.39574061  5520
STARLINK-34526          
1 64481U 25133K   25202.91670139 -.00661126  00000+0 -17514-1 0  9996
2 64481  53.1601 116.8633 0001783  75.9067 202.1361 15.40051469  5625
STARLINK-34527          
1 64482U 25133L   25202.91670139 -.00651399  00000+0 -17242-1 0  9996
2 64482  53.1595 116.8594 0001554  84.5287 195.3818 15.40045242  5734
STARLINK-34420          
1 64483U 25133M   25202.91670139 -.01590741  00000+0 -40082-1 0  9999
2 64483  53.1602 116.8200 0001379  95.5078 203.9619 15.42609784  5737
STARLINK-34509          
1 64484U 25133N   25200.08477169  .00066016  00000+0  11840-2 0  9995
2 64484  53.1597 130.3116 0001019  61.2178 298.8934 15.49333238  5301
STARLINK-34409          
1 64485U 25133P   25202.91670139 -.01597850  00000+0 -37332-1 0  9993
2 64485  53.1595 116.7871 0001177 109.4170 206.5359 15.44839701  5733
STARLINK-34520          
1 64486U 25133Q   25202.79338323  .00088429  00000+0  15700-2 0  9996
2 64486  53.1626 117.3521 0006636 209.9601 150.1029 15.49471382  5716
STARLINK-34477          
1 64487U 25133R   25202.79304453 -.00322559  00000+0 -63461-2 0  9998
2 64487  53.1593 117.3499 0000760  51.4912 308.6165 15.47875318  5717
STARLINK-34217          
1 64488U 25133S   25202.14765987  .00014096  00000+0  26077-3 0  9996
2 64488  53.1592 120.4337 0002338  37.2407 322.8763 15.49338381  5513
STARLINK-34307          
1 64489U 25133T   25202.21182456  .00057045  00000+0  10256-2 0  9991
2 64489  53.1604 120.1214 0001735  52.3111 307.8055 15.49326420  5618
STARLINK-34505          
1 64490U 25133U   25202.79205197  .00089738  00000+0  15992-2 0  9990
2 64490  53.1613 117.3422 0001273  94.6786 265.4368 15.49377911  5698
STARLINK-34530          
1 64491U 25133V   25202.79170841  .00090674  00000+0  16163-2 0  9990
2 64491  53.1601 117.3409 0001164 110.5023 249.6111 15.49365662  5692
STARLINK-34522          
1 64492U 25133W   25202.79137224  .00046240  00000+0  83451-3 0  9994
2 64492  53.1600 117.3380 0001494  63.6803 296.4359 15.49309858  5712
STARLINK-34462          
1 64493U 25133X   25202.79102307  .00078973  00000+0  14126-2 0  9999
2 64493  53.1599 117.3357 0001373 100.8782 259.2382 15.49330691  5712
STARLINK-34226          
1 64494U 25133Y   25202.85518646  .00041732  00000+0  75394-3 0  9992
2 64494  53.1600 117.0253 0001121  97.2179 262.8957 15.49326188  5565
STARLINK-34364          
1 64495U 25133Z   25202.01589448  .00056763  00000+0  10205-2 0  9998
2 64495  53.1601 121.0305 0001316  53.6667 306.4464 15.49329662  5607
STARLINK-34268          
1 64496U 25133AA  25202.46779409  .00080743  00000+0  14431-2 0  9996
2 64496  53.1599 118.8727 0001100  92.5373 267.5762 15.49343693  5667
STARLINK-34363          
1 64497U 25133AB  25202.46710565  .00033781  00000+0  61211-3 0  9994
2 64497  53.1608 118.8668 0001101  91.9646 268.1489 15.49341943  5670
STARLINK-34427          
1 64498U 25133AC  25202.78930272  .00044464  00000+0  80177-3 0  9991
2 64498  53.1599 117.3257 0001914 108.6346 251.4871 15.49350868  5725
KUIPER-00039            
1 64500U 25134A   25202.71390103  .00019160  00000+0  56750-3 0  9997
2 64500  51.8667 194.8635 0007401 217.2969 142.7503 15.34862778  5125
KUIPER-00040            
1 64501U 25134B   25202.58334491 -.00826738  00000+0 -30441-1 0  9997
2 64501  51.8657 195.7700 0011219 226.7532   2.1380 15.29808849  4428
KUIPER-00041            
1 64502U 25134C   25202.91670139 -.00833528  00000+0 -34498-1 0  9998
2 64502  51.8698 194.2054 0008045 227.1199 359.5820 15.26072458  5141
KUIPER-00042            
1 64503U 25134D   25202.39377853  .00021029  00000+0  62696-3 0  9994
2 64503  51.8650 196.4615 0008637 215.1595 144.8821 15.34584482  5534
KUIPER-00043            
1 64504U 25134E   25202.25950354  .00025847  00000+0  76323-3 0  9997
2 64504  51.8694 197.0714 0007737 207.9059 152.1512 15.34769261  5511
KUIPER-00044            
1 64505U 25134F   25202.91670139 -.00842835  00000+0 -34741-1 0  9993
2 64505  51.8667 194.2592 0010943 216.8361 359.4629 15.26195540  5136
KUIPER-00046            
1 64506U 25134G   25202.91670139  .00040596  00000+0  12863-2 0  9998
2 64506  51.8668 193.9753 0009308 218.0865 137.8410 15.32289320  5154
KUIPER-00047            
1 64507U 25134H   25202.40073557  .00020554  00000+0  62186-3 0  9990
2 64507  51.8608 196.5003 0010132 227.2931 132.7202 15.34122317  5538
KUIPER-00048            
1 64508U 25134J   25202.36542595  .00021894  00000+0  62046-3 0  9992
2 64508  51.8755 196.2980 0002676 197.1430 162.9466 15.36182132  5536
KUIPER-00049            
1 64509U 25134K   25202.25194952  .00015370  00000+0  45228-3 0  9996
2 64509  51.8720 197.0256 0006678 206.7448 153.3195 15.35241710  5491
KUIPER-00050            
1 64510U 25134L   25202.38472544  .00021405  00000+0  62792-3 0  9999
2 64510  51.8719 196.4178 0007109 210.5984 149.4588 15.35095264  5533
KUIPER-00051            
1 64511U 25134M   25202.44142708  .00019052  00000+0  55542-3 0  9993
2 64511  51.8740 196.0515 0005039 199.2046 160.8751 15.35379735  5549
KUIPER-00052            
1 64512U 25134N   25199.04127448 -.00143739  00000+0 -38936-2 0  9998
2 64512  51.8758 212.2683 0004898 196.0169 164.0664 15.37613806  5023
KUIPER-00053            
1 64513U 25134P   25202.68598608  .00017243  00000+0  48877-3 0  9998
2 64513  51.8764 194.6943 0001872 184.5437 175.5532 15.36341219  5129
KUIPER-00054            
1 64514U 25134Q   25202.36440897  .00014351  00000+0  41088-3 0  9994
2 64514  51.8748 196.2908 0002592 186.0549 174.0407 15.36178072  5537
KUIPER-00055            
1 64515U 25134R   25202.67793876  .00030625  00000+0  84582-3 0  9995
2 64515  51.8757 194.6438 0000920  91.2883 268.8209 15.36797284  5432
KUIPER-00056            
1 64516U 25134S   25202.36821833  .00021070  00000+0  60304-3 0  9997
2 64516  51.8737 196.3141 0002999 195.6605 164.4288 15.35897129  5537
KUIPER-00057            
1 64517U 25134T   25202.38299778  .00022716  00000+0  66677-3 0  9994
2 64517  51.8703 196.4027 0006372 207.3726 152.6925 15.35043418  5530
KUIPER-00058            
1 64518U 25134U   25202.24441123  .00033334  00000+0  95566-3 0  9990
2 64518  51.8721 196.9788 0004340 197.8572 162.2262 15.35581843  5513
KUIPER-00059            
1 64519U 25134V   25202.58334491 -.00012945  00000+0 -34530-3 0  9998
2 64519  51.8752 195.1155 0001339 122.9727  64.9156 15.36721533  4762
KUIPER-00060            
1 64520U 25134W   25202.48855409  .00034610  00000+0  96238-3 0  9990
2 64520  51.8758 195.6245 0001903 145.0235 215.0876 15.36524055  5547
KUIPER-00061            
1 64521U 25134X   25202.37767197  .00026864  00000+0  77765-3 0  9991
2 64521  51.8745 196.3749 0005004 209.6842 150.3860 15.35388404  5525
KUIPER-00062            
1 64522U 25134Y   25202.24156498  .00033755  00000+0  96345-3 0  9996
2 64522  51.8751 196.9648 0004357 194.7701 165.3158 15.35714695  5054
KUIPER-00063            
1 64523U 25134Z   25202.36224040  .00022205  00000+0  62728-3 0  9995
2 64523  51.8743 196.2771 0002277 170.5967 189.5062 15.36272954  5534
KUIPER-00064            
1 64524U 25134AA  25202.41724826  .00018401  00000+0  51186-3 0  9998
2 64524  51.8756 195.8959 0001307 106.3100 253.8030 15.36881863  5547
KUIPER-00065            
1 64525U 25134AB  25202.39150649  .00019613  00000+0  58405-3 0  9999
2 64525  51.8699 196.4573 0008169 210.5770 149.4740 15.34671922  5524
KUIPER-00066            
1 64526U 25134AC  25200.33336806  .00010164  00000+0  29075-3 0  9996
2 64526  51.8765 206.0140 0001472 119.3946 200.4207 15.36559983  4752
2025-135A               
1 64528U 25135A   25202.57542257  .00005550  00000+0  28449-3 0  9993
2 64528  97.4399 316.6024 0004339 253.4054 106.6703 15.16961862  4644
2025-135B               
1 64529U 25135B   25202.83931578  .00004608  00000+0  23705-3 0  9994
2 64529  97.4501 316.8955 0004150 231.8517 128.2342 15.16926049  4681
2025-135C               
1 64530U 25135C   25202.57354747  .00006156  00000+0  31378-3 0  9999
2 64530  97.4396 316.6032 0004150 254.2021 105.8755 15.17118151  4641
TPA-1                   
1 64531U 25135D   25202.83742926  .00006577  00000+0  33511-3 0  9997
2 64531  97.4490 316.8936 0004285 229.7822 130.3037 15.17101543  4684
2025-135E               
1 64532U 25135E   25202.83736902  .00006521  00000+0  33227-3 0  9998
2 64532  97.4490 316.8939 0004282 229.4291 130.6570 15.17105018  4688
